{"type": "FeatureCollection", "features": [ {"type": "Feature", "properties": {"norad_id": 66509, "name": "STARLINK-35598", "group": "last-30-days", "lat": 34.53898133122578, "lon": -161.81601176776786, "alt_km": 411.4363001208567, "timestamp": "2025-12-08T08:58:59.556703+00:00", "meta": {"OBJECT_NAME": "STARLINK-35598", "OBJECT_ID": "2025-263AA", "EPOCH": "2025-12-07T22:00:03.000096", "MEAN_MOTION": 15.51858182, "ECCENTRICITY": 0.00013889, "INCLINATION": 43.0001, "RA_OF_ASC_NODE": 153.2491, "ARG_OF_PERICENTER": 269.4101, "MEAN_ANOMALY": 108.7228, "EPHEMERIS_TYPE": 0, "CLASSIFICATION_TYPE": "U", "NORAD_CAT_ID": 66509, "ELEMENT_SET_NO": 999, "REV_AT_EPOCH": 486, "BSTAR": -0.029940768, "MEAN_MOTION_DOT": -0.01649089, "MEAN_MOTION_DDOT": 0}, "tle": {"line1": "1 66509U 25263AA  25341.91670139 -.01649089  00000+0 -29941-1 0  9999", "line2": "2 66509  43.0001 153.2491 0001388 269.4101 108.7228 15.51858182  4864"}}, "geometry": {"type": "Point", "coordinates": [-161.81601176776786, 34.53898133122578]}}, {"type": "Feature", "properties": {"norad_id": 66510, "name": "STARLINK-35600", "group": "last-30-days", "lat": 31.74555697636285, "lon": -167.81320703573297, "alt_km": 411.7555036930771, "timestamp": "2025-12-08T08:58:59.556713+00:00", "meta": {"OBJECT_NAME": "STARLINK-35600", "OBJECT_ID": "2025-263AB", "EPOCH": "2025-12-07T22:00:03.000096", "MEAN_MOTION": 15.51849682, "ECCENTRICITY": 0.00013425, "INCLINATION": 43.0003, "RA_OF_ASC_NODE": 153.2636, "ARG_OF_PERICENTER": 270.8886, "MEAN_ANOMALY": 101.4982, "EPHEMERIS_TYPE": 0, "CLASSIFICATION_TYPE": "U", "NORAD_CAT_ID": 66510, "ELEMENT_SET_NO": 999, "REV_AT_EPOCH": 486, "BSTAR": -0.02972272, "MEAN_MOTION_DOT": -0.01637824, "MEAN_MOTION_DDOT": 0}, "tle": {"line1": "1 66510U 25263AB  25341.91670139 -.01637824  00000+0 -29723-1 0  9993", "line2": "2 66510  43.0003 153.2636 0001342 270.8886 101.4982 15.51849682  4867"}}, "geometry": {"type": "Point", "coordinates": [-167.81320703573297, 31.74555697636285]}}, {"type": "Feature", "properties": {"norad_id": 66511, "name": "STARLINK-35444", "group": "last-30-days", "lat": 33.63321025477432, "lon": -163.87233061908023, "alt_km": 411.58845808816386, "timestamp": "2025-12-08T08:58:59.556723+00:00", "meta": {"OBJECT_NAME": "STARLINK-35444", "OBJECT_ID": "2025-263AC", "EPOCH": "2025-12-07T22:00:03.000096", "MEAN_MOTION": 15.5187053, "ECCENTRICITY": 0.00015435, "INCLINATION": 43.0001, "RA_OF_ASC_NODE": 153.2548, "ARG_OF_PERICENTER": 277.794, "MEAN_ANOMALY": 98.4181, "EPHEMERIS_TYPE": 0, "CLASSIFICATION_TYPE": "U", "NORAD_CAT_ID": 66511, "ELEMENT_SET_NO": 999, "REV_AT_EPOCH": 486, "BSTAR": -0.03070344, "MEAN_MOTION_DOT": -0.01687452, "MEAN_MOTION_DDOT": 0}, "tle": {"line1": "1 66511U 25263AC  25341.91670139 -.01687452  00000+0 -30703-1 0  9996", "line2": "2 66511  43.0001 153.2548 0001543 277.7940  98.4181 15.51870530  4860"}}, "geometry": {"type": "Point", "coordinates": [-163.87233061908023, 33.63321025477432]}}, {"type": "Feature", "properties": {"norad_id": 66512, "name": "STARLINK-35366", "group": "last-30-days", "lat": 35.396393077860736, "lon": -159.74562269401454, "alt_km": 411.3094310261522, "timestamp": "2025-12-08T08:58:59.556734+00:00", "meta": {"OBJECT_NAME": "STARLINK-35366", "OBJECT_ID": "2025-263AD", "EPOCH": "2025-12-07T22:00:03.000096", "MEAN_MOTION": 15.51869227, "ECCENTRICITY": 0.00014763, "INCLINATION": 42.9999, "RA_OF_ASC_NODE": 153.2448, "ARG_OF_PERICENTER": 279.4353, "MEAN_ANOMALY": 100.6129, "EPHEMERIS_TYPE": 0, "CLASSIFICATION_TYPE": "U", "NORAD_CAT_ID": 66512, "ELEMENT_SET_NO": 999, "REV_AT_EPOCH": 486, "BSTAR": -0.030714643, "MEAN_MOTION_DOT": -0.01687898, "MEAN_MOTION_DDOT": 0}, "tle": {"line1": "1 66512U 25263AD  25341.91670139 -.01687898  00000+0 -30715-1 0  9994", "line2": "2 66512  42.9999 153.2448 0001476 279.4353 100.6129 15.51869227  4865"}}, "geometry": {"type": "Point", "coordinates": [-159.74562269401454, 35.396393077860736]}}, {"type": "Feature", "properties": {"norad_id": 66513, "name": "STARLINK-35692", "group": "last-30-days", "lat": 32.70838374360222, "lon": -165.85602744831897, "alt_km": 411.6718171826178, "timestamp": "2025-12-08T08:58:59.556744+00:00", "meta": {"OBJECT_NAME": "STARLINK-35692", "OBJECT_ID": "2025-263AE", "EPOCH": "2025-12-07T22:00:03.000096", "MEAN_MOTION": 15.51854224, "ECCENTRICITY": 0.00013997, "INCLINATION": 43, "RA_OF_ASC_NODE": 153.2591, "ARG_OF_PERICENTER": 270.3363, "MEAN_ANOMALY": 103.9654, "EPHEMERIS_TYPE": 0, "CLASSIFICATION_TYPE": "U", "NORAD_CAT_ID": 66513, "ELEMENT_SET_NO": 999, "REV_AT_EPOCH": 486, "BSTAR": -0.029851796, "MEAN_MOTION_DOT": -0.01644482, "MEAN_MOTION_DDOT": 0}, "tle": {"line1": "1 66513U 25263AE  25341.91670139 -.01644482  00000+0 -29852-1 0  9997", "line2": "2 66513  43.0000 153.2591 0001399 270.3363 103.9654 15.51854224  4865"}}, "geometry": {"type": "Point", "coordinates": [-165.85602744831897, 32.70838374360222]}}, {"type": "Feature", "properties": {"norad_id": 66514, "name": "SENTINEL-6B", "group": "last-30-days", "lat": 60.207391626551775, "lon": -59.433232000260205, "alt_km": 1333.8132703469491, "timestamp": "2025-12-08T08:58:59.556754+00:00", "meta": {"OBJECT_NAME": "SENTINEL-6B", "OBJECT_ID": "2025-264A", "EPOCH": "2025-12-07T23:04:25.327200", "MEAN_MOTION": 12.84031938, "ECCENTRICITY": 0.0021041, "INCLINATION": 66.0386, "RA_OF_ASC_NODE": 172.3856, "ARG_OF_PERICENTER": 268.5107, "MEAN_ANOMALY": 91.35, "EPHEMERIS_TYPE": 0, "CLASSIFICATION_TYPE": "U", "NORAD_CAT_ID": 66514, "ELEMENT_SET_NO": 999, "REV_AT_EPOCH": 267, "BSTAR": 0.00011848474, "MEAN_MOTION_DOT": -3.3e-07, "MEAN_MOTION_DDOT": 0}, "tle": {"line1": "1 66514U 25264A   25341.96140425 -.00000033  00000+0  11848-3 0  9998", "line2": "2 66514  66.0386 172.3856 0021041 268.5107  91.3500 12.84031938  2674"}}, "geometry": {"type": "Point", "coordinates": [-59.433232000260205, 60.207391626551775]}}, {"type": "Feature", "properties": {"norad_id": 66516, "name": "STARLINK-35924", "group": "last-30-days", "lat": -13.918473024122953, "lon": -84.98145428503832, "alt_km": 396.5159391951811, "timestamp": "2025-12-08T08:58:59.556767+00:00", "meta": {"OBJECT_NAME": "STARLINK-35924", "OBJECT_ID": "2025-265A", "EPOCH": "2025-12-07T22:00:03.000096", "MEAN_MOTION": 15.59423408, "ECCENTRICITY": 0.00012731, "INCLINATION": 43.0004, "RA_OF_ASC_NODE": 82.3045, "ARG_OF_PERICENTER": 284.7849, "MEAN_ANOMALY": 225.4864, "EPHEMERIS_TYPE": 0, "CLASSIFICATION_TYPE": "U", "NORAD_CAT_ID": 66516, "ELEMENT_SET_NO": 999, "REV_AT_EPOCH": 420, "BSTAR": -0.028477882, "MEAN_MOTION_DOT": -0.02026781, "MEAN_MOTION_DDOT": 0}, "tle": {"line1": "1 66516U 25265A   25341.91670139 -.02026781  00000+0 -28478-1 0  9992", "line2": "2 66516  43.0004  82.3045 0001273 284.7849 225.4864 15.59423408  4202"}}, "geometry": {"type": "Point", "coordinates": [-84.98145428503832, -13.918473024122953]}}, {"type": "Feature", "properties": {"norad_id": 66517, "name": "STARLINK-35937", "group": "last-30-days", "lat": -15.171921769539576, "lon": -83.49088373453496, "alt_km": 396.6753478714745, "timestamp": "2025-12-08T08:58:59.556779+00:00", "meta": {"OBJECT_NAME": "STARLINK-35937", "OBJECT_ID": "2025-265B", "EPOCH": "2025-12-07T22:00:03.000096", "MEAN_MOTION": 15.59420835, "ECCENTRICITY": 0.00013548, "INCLINATION": 43.0003, "RA_OF_ASC_NODE": 82.3001, "ARG_OF_PERICENTER": 287.9729, "MEAN_ANOMALY": 224.2165, "EPHEMERIS_TYPE": 0, "CLASSIFICATION_TYPE": "U", "NORAD_CAT_ID": 66517, "ELEMENT_SET_NO": 999, "REV_AT_EPOCH": 421, "BSTAR": -0.028439103, "MEAN_MOTION_DOT": -0.02024256, "MEAN_MOTION_DDOT": 0}, "tle": {"line1": "1 66517U 25265B   25341.91670139 -.02024256  00000+0 -28439-1 0  9995", "line2": "2 66517  43.0003  82.3001 0001354 287.9729 224.2165 15.59420835  4219"}}, "geometry": {"type": "Point", "coordinates": [-83.49088373453496, -15.171921769539576]}}, {"type": "Feature", "properties": {"norad_id": 66518, "name": "STARLINK-35962", "group": "last-30-days", "lat": -16.41636864777061, "lon": -81.98195024820328, "alt_km": 396.73607512440503, "timestamp": "2025-12-08T08:58:59.556790+00:00", "meta": {"OBJECT_NAME": "STARLINK-35962", "OBJECT_ID": "2025-265C", "EPOCH": "2025-12-07T22:00:03.000096", "MEAN_MOTION": 15.5942427, "ECCENTRICITY": 0.00013241, "INCLINATION": 43.0002, "RA_OF_ASC_NODE": 82.2951, "ARG_OF_PERICENTER": 287.0783, "MEAN_ANOMALY": 227.0254, "EPHEMERIS_TYPE": 0, "CLASSIFICATION_TYPE": "U", "NORAD_CAT_ID": 66518, "ELEMENT_SET_NO": 999, "REV_AT_EPOCH": 421, "BSTAR": -0.028493521, "MEAN_MOTION_DOT": -0.0202785, "MEAN_MOTION_DDOT": 0}, "tle": {"line1": "1 66518U 25265C   25341.91670139 -.02027850  00000+0 -28494-1 0  9990", "line2": "2 66518  43.0002  82.2951 0001324 287.0783 227.0254 15.59424270  4217"}}, "geometry": {"type": "Point", "coordinates": [-81.98195024820328, -16.41636864777061]}}, {"type": "Feature", "properties": {"norad_id": 66519, "name": "STARLINK-35931", "group": "last-30-days", "lat": -17.650279140969822, "lon": -80.45315826716879, "alt_km": 396.81825564690826, "timestamp": "2025-12-08T08:58:59.556800+00:00", "meta": {"OBJECT_NAME": "STARLINK-35931", "OBJECT_ID": "2025-265D", "EPOCH": "2025-12-07T22:00:03.000096", "MEAN_MOTION": 15.59422303, "ECCENTRICITY": 0.00013201, "INCLINATION": 43.0003, "RA_OF_ASC_NODE": 82.2901, "ARG_OF_PERICENTER": 287.3487, "MEAN_ANOMALY": 228.674, "EPHEMERIS_TYPE": 0, "CLASSIFICATION_TYPE": "U", "NORAD_CAT_ID": 66519, "ELEMENT_SET_NO": 999, "REV_AT_EPOCH": 421, "BSTAR": -0.028464889, "MEAN_MOTION_DOT": -0.02025933, "MEAN_MOTION_DDOT": 0}, "tle": {"line1": "1 66519U 25265D   25341.91670139 -.02025933  00000+0 -28465-1 0  9999", "line2": "2 66519  43.0003  82.2901 0001320 287.3487 228.6740 15.59422303  4216"}}, "geometry": {"type": "Point", "coordinates": [-80.45315826716879, -17.650279140969822]}}]}